STARLINK-30896          
1 58353U 23177C   26068.42455781  .00000295  00000+0  20241-4 0  9990
2 58353  42.9994 210.2995 0000928 271.5570  88.5175 15.27575550129791
FLOCK 4G-3              
1 62639U 25009AG  26068.80174065  .00011494  00000+0  43389-3 0  9993
2 62639  97.4062 151.4068 0001320 293.2042  66.9058 15.27179310 63727
